0 FIREBIRD 3
1 40377U 15003B   19317.70255593  .00002416  00000-0  97603-4 0  9999
2 40377  99.1185 328.3650 0125056 317.7017  41.4619 15.19283182264397
0 FIREBIRD 4
1 40378U 15003C   19317.68886369  .00002382  00000-0  96205-4 0  9997
2 40378  99.1188 328.4334 0125259 317.6272  41.5335 15.19296261264396
0 OBJECT PB
1 43553U 98067PB  19317.46973492  .00012456  00000-0  13855-3 0  9998
2 43553  51.6402 318.3332 0006071 351.5181   8.5710 15.63284531 76148
